start=new Date('2023-04-16T00:00:00.000Z').valueOf();
sats=[{"RCS_SIZE":"LARGE","LAUNCH_DATE":"2023-03-29","CENTER_NAME":"EARTH","ECCENTRICITY":"0.00005850","DECAY_DATE":null,"NORAD_CAT_ID":"56142","PERIOD":"91.641","OBJECT_ID":"2023-046BC","ARG_OF_PERICENTER":"312.1974","COUNTRY_CODE":"US","INCLINATION":"43.0010","TLE_LINE1":"1 56142U 23046BC  23105.87034021  .00066750  00000-0  50844-3 0  9997","EPHEMERIS_TYPE":"0","APOAPSIS":"355.423","REV_AT_EPOCH":"268","TLE_LINE2":"2 56142  43.0010 161.2080 0000585 312.1974  47.8844 15.71353882  2685","MEAN_MOTION":"15.71353882","SITE":"AFETR","MEAN_ELEMENT_THEORY":"SGP4","RA_OF_ASC_NODE":"161.2080","BSTAR":"0.00050844000000","MEAN_MOTION_DDOT":"0.0000000000000","MEAN_MOTION_DOT":"0.00066750","ELEMENT_SET_NO":"999","REF_FRAME":"TEME","PERIAPSIS":"354.635","EPOCH":"2023-04-15T20:53:17.394144","OBJECT_NAME":"STARLINK-5376","MEAN_ANOMALY":"47.8844","SEMIMAJOR_AXIS":"6733.164","TIME_SYSTEM":"UTC","FILE":"3888171","OBJECT_TYPE":"PAYLOAD","GP_ID":"230134691","CLASSIFICATION_TYPE":"U"},{"GP_ID":"230134639","CLASSIFICATION_TYPE":"U","TIME_SYSTEM":"UTC","FILE":"3888171","OBJECT_TYPE":"PAYLOAD","MEAN_ANOMALY":"80.1209","SEMIMAJOR_AXIS":"6733.088","OBJECT_NAME":"STARLINK-5016","EPOCH":"2023-04-15T20:52:22.389312","PERIAPSIS":"354.560","REF_FRAME":"TEME","ELEMENT_SET_NO":"999","BSTAR":"0.00056132000000","MEAN_MOTION_DOT":"0.00073887","MEAN_MOTION_DDOT":"0.0000000000000","RA_OF_ASC_NODE":"161.2043","MEAN_ELEMENT_THEORY":"SGP4","SITE":"AFETR","MEAN_MOTION":"15.71380535","TLE_LINE2":"2 56143  43.0012 161.2043 0000583 279.9593  80.1209 15.71380535  2682","REV_AT_EPOCH":"268","INCLINATION":"43.0012","TLE_LINE1":"1 56143U 23046BD  23105.86970358  .00073887  00000-0  56132-3 0  9994","APOAPSIS":"355.345","EPHEMERIS_TYPE":"0","COUNTRY_CODE":"US","OBJECT_ID":"2023-046BD","PERIOD":"91.639","ARG_OF_PERICENTER":"279.9593","NORAD_CAT_ID":"56143","DECAY_DATE":null,"LAUNCH_DATE":"2023-03-29","CENTER_NAME":"EARTH","ECCENTRICITY":"0.00005830","RCS_SIZE":"LARGE"},{"PERIAPSIS":"354.011","ELEMENT_SET_NO":"999","REF_FRAME":"TEME","MEAN_MOTION_DDOT":"0.0000000000000","MEAN_MOTION_DOT":"0.00030572","BSTAR":"0.00023544000000","RA_OF_ASC_NODE":"161.2011","MEAN_ELEMENT_THEORY":"SGP4","SITE":"AFETR","CLASSIFICATION_TYPE":"U","GP_ID":"230134668","FILE":"3888171","OBJECT_TYPE":"PAYLOAD","TIME_SYSTEM":"UTC","SEMIMAJOR_AXIS":"6733.078","MEAN_ANOMALY":"86.7775","OBJECT_NAME":"STARLINK-5374","EPOCH":"2023-04-15T20:52:57.726048","COUNTRY_CODE":"US","ARG_OF_PERICENTER":"273.2935","OBJECT_ID":"2023-046BE","PERIOD":"91.639","DECAY_DATE":null,"NORAD_CAT_ID":"56144","LAUNCH_DATE":"2023-03-29","ECCENTRICITY":"0.00013840","CENTER_NAME":"EARTH","RCS_SIZE":"LARGE","MEAN_MOTION":"15.71383966","TLE_LINE2":"2 56144  42.9992 161.2011 0001384 273.2935  86.7775 15.71383966  2681","REV_AT_EPOCH":"268","TLE_LINE1":"1 56144U 23046BE  23105.87011257  .00030572  00000-0  23544-3 0  9995","EPHEMERIS_TYPE":"0","APOAPSIS":"355.875","INCLINATION":"42.9992"},{"TIME_SYSTEM":"UTC","FILE":"3888171","OBJECT_TYPE":"PAYLOAD","GP_ID":"230134619","CLASSIFICATION_TYPE":"U","EPOCH":"2023-04-15T20:52:15.462624","SEMIMAJOR_AXIS":"6733.346","MEAN_ANOMALY":"92.0295","OBJECT_NAME":"STARLINK-5370","PERIAPSIS":"353.830","ELEMENT_SET_NO":"999","REF_FRAME":"TEME","MEAN_ELEMENT_THEORY":"SGP4","SITE":"AFETR","BSTAR":"0.00044533000000","MEAN_MOTION_DDOT":"0.0000000000000","MEAN_MOTION_DOT":"0.00058194","RA_OF_ASC_NODE":"161.2038","TLE_LINE2":"2 56145  43.0013 161.2038 0002051 268.0338  92.0295 15.71290205  2688","MEAN_MOTION":"15.71290205","REV_AT_EPOCH":"268","INCLINATION":"43.0013","EPHEMERIS_TYPE":"0","TLE_LINE1":"1 56145U 23046BF  23105.86962341  .00058194  00000-0  44533-3 0  9995","APOAPSIS":"356.592","COUNTRY_CODE":"US","PERIOD":"91.644","OBJECT_ID":"2023-046BF","ARG_OF_PERICENTER":"268.0338","LAUNCH_DATE":"2023-03-29","CENTER_NAME":"EARTH","ECCENTRICITY":"0.00020510","RCS_SIZE":"LARGE","DECAY_DATE":null,"NORAD_CAT_ID":"56145"},{"SITE":"AFETR","MEAN_ELEMENT_THEORY":"SGP4","RA_OF_ASC_NODE":"161.2045","BSTAR":"0.00078897000000","MEAN_MOTION_DOT":"0.00104375","MEAN_MOTION_DDOT":"0.0000000000000","REF_FRAME":"TEME","ELEMENT_SET_NO":"999","PERIAPSIS":"353.982","EPOCH":"2023-04-15T20:52:32.213856","OBJECT_NAME":"STARLINK-5111","SEMIMAJOR_AXIS":"6733.118","MEAN_ANOMALY":"97.4150","TIME_SYSTEM":"UTC","FILE":"3888171","OBJECT_TYPE":"PAYLOAD","GP_ID":"230134595","CLASSIFICATION_TYPE":"U","RCS_SIZE":"LARGE","ECCENTRICITY":"0.00014860","LAUNCH_DATE":"2023-03-29","CENTER_NAME":"EARTH","DECAY_DATE":null,"NORAD_CAT_ID":"56146","PERIOD":"91.640","OBJECT_ID":"2023-046BG","ARG_OF_PERICENTER":"262.6549","COUNTRY_CODE":"US","INCLINATION":"43.0011","TLE_LINE1":"1 56146U 23046BG  23105.86981729  .00104375  00000-0  78897-3 0  9990","EPHEMERIS_TYPE":"0","APOAPSIS":"355.983","REV_AT_EPOCH":"268","TLE_LINE2":"2 56146  43.0011 161.2045 0001486 262.6549  97.4150 15.71369960  2684","MEAN_MOTION":"15.71369960"},{"EPOCH":"2023-04-15T20:51:55.816992","MEAN_ANOMALY":"71.3078","SEMIMAJOR_AXIS":"6733.155","OBJECT_NAME":"STARLINK-5140","TIME_SYSTEM":"UTC","FILE":"3888171","OBJECT_TYPE":"PAYLOAD","GP_ID":"230134736","CLASSIFICATION_TYPE":"U","MEAN_ELEMENT_THEORY":"SGP4","SITE":"AFETR","BSTAR":"0.00058014000000","MEAN_MOTION_DOT":"0.00076325","MEAN_MOTION_DDOT":"0.0000000000000","RA_OF_ASC_NODE":"161.2017","PERIAPSIS":"354.651","ELEMENT_SET_NO":"999","REF_FRAME":"TEME","REV_AT_EPOCH":"268","INCLINATION":"43.0015","APOAPSIS":"355.389","TLE_LINE1":"1 56147U 23046BH  23105.86939603  .00076325  00000-0  58014-3 0  9997","EPHEMERIS_TYPE":"0","TLE_LINE2":"2 56147  43.0015 161.2017 0000548 288.7730  71.3078 15.71356851  2682","MEAN_MOTION":"15.71356851","CENTER_NAME":"EARTH","LAUNCH_DATE":"2023-03-29","ECCENTRICITY":"0.00005480","RCS_SIZE":"LARGE","DECAY_DATE":null,"NORAD_CAT_ID":"56147","COUNTRY_CODE":"US","OBJECT_ID":"2023-046BH","PERIOD":"91.641","ARG_OF_PERICENTER":"288.7730"},{"TLE_LINE2":"2 56148  43.0009 161.2017 0002489 276.2800  83.7784 15.71461488  2686","MEAN_MOTION":"15.71461488","INCLINATION":"43.0009","TLE_LINE1":"1 56148U 23046BJ  23105.86949282  .00080884  00000-0  61149-3 0  9990","APOAPSIS":"356.397","EPHEMERIS_TYPE":"0","REV_AT_EPOCH":"268","PERIOD":"91.634","OBJECT_ID":"2023-046BJ","ARG_OF_PERICENTER":"276.2800","COUNTRY_CODE":"US","RCS_SIZE":"LARGE","LAUNCH_DATE":"2023-03-29","ECCENTRICITY":"0.00024890","CENTER_NAME":"EARTH","DECAY_DATE":null,"NORAD_CAT_ID":"56148","TIME_SYSTEM":"UTC","OBJECT_TYPE":"PAYLOAD","FILE":"3888171","GP_ID":"230134571","CLASSIFICATION_TYPE":"U","EPOCH":"2023-04-15T20:52:04.179648","OBJECT_NAME":"STARLINK-5089","MEAN_ANOMALY":"83.7784","SEMIMAJOR_AXIS":"6732.856","REF_FRAME":"TEME","ELEMENT_SET_NO":"999","PERIAPSIS":"353.046","SITE":"AFETR","MEAN_ELEMENT_THEORY":"SGP4","RA_OF_ASC_NODE":"161.2017","BSTAR":"0.00061149000000","MEAN_MOTION_DOT":"0.00080884","MEAN_MOTION_DDOT":"0.0000000000000"}];
